OPTICUBE 04             
1 41851U 16067D   26068.51005515  .00003771  00000+0  24102-3 0  9992
2 41851  98.0811 275.5525 0017089  94.6311 265.6869 15.09188144510131
STARLINK-34909          
1 65401U 25191Y   26068.63982076  .00005148  00000+0  36068-3 0  9990
2 65401  97.6021 301.5048 0002553  79.2579 280.8935 15.05650911 30278
